ORBCOMM FM06 [+]        
1 25118U 97084G   24112.76083473  .00006444  00000+0  19635-2 0  9996
2 25118  45.0139 226.3826 0003413 257.1553 259.5562 14.42588732380592
ORBCOMM FM07 [-]        
1 25119U 97084H   24112.44392975  .00006127  00000+0  18722-2 0  9996
2 25119  45.0127 228.4214 0004789 244.7977 115.2377 14.42506426380562
ORBCOMM FM03 [-]        
1 25158U 98007B   24112.65989891  .00003501  00000+0  13309-2 0  9996
2 25158 107.9747 351.1508 0048761 265.3481  94.2087 14.32076333363640
ORBCOMM FM04 [+]        
1 25159U 98007C   24113.14082619  .00003679  00000+0  13921-2 0  9990
2 25159 107.9728 355.0596 0044240 262.4933  97.1178 14.32337727363996
ORBCOMM FM17 [-]        
1 25413U 98046A   24111.97277090  .00003257  00000+0  12289-2 0  9992
2 25413  44.9935  87.1086 0003747 280.4036  79.6387 14.33041557342737
ORBCOMM FM18 [-]        
1 25414U 98046B   24113.11789189  .00004784  00000+0  16857-2 0  9999
2 25414  44.9949   9.2059 0004679 327.1218  32.9338 14.35789374343843
ORBCOMM FM19 [+]        
1 25415U 98046C   24112.82520003  .00004751  00000+0  16801-2 0  9998
2 25415  44.9958  11.9762 0003610 319.2213 152.7599 14.35621637343595
